[{"OBJECT_NAME":"STARLINK-4051","OBJECT_ID":"2022-086AH","EPOCH":"2026-03-09T15:06:36.263232","MEAN_MOTION":15.08844762,"ECCENTRICITY":0.0001515,"INCLINATION":53.2177,"RA_OF_ASC_NODE":184.3919,"ARG_OF_PERICENTER":73.7535,"MEAN_ANOMALY":286.3624,"EPHEMERIS_TYPE":0,"CLASSIFICATION_TYPE":"U","NORAD_CAT_ID":53273,"ELEMENT_SET_NO":999,"REV_AT_EPOCH":20118,"BSTAR":4.3047e-6,"MEAN_MOTION_DOT":-2.19e-6,"MEAN_MOTION_DDOT":0},{"OBJECT_NAME":"KUIPER-00148","OBJECT_ID":"2025-217H","EPOCH":"2026-03-09T06:36:19.446048","MEAN_MOTION":15.09536529,"ECCENTRICITY":0.00081087,"INCLINATION":51.8794,"RA_OF_ASC_NODE":26.5769,"ARG_OF_PERICENTER":351.8096,"MEAN_ANOMALY":8.2745,"EPHEMERIS_TYPE":0,"CLASSIFICATION_TYPE":"U","NORAD_CAT_ID":65769,"ELEMENT_SET_NO":999,"REV_AT_EPOCH":2507,"BSTAR":0.00098730243,"MEAN_MOTION_DOT":0.00015783,"MEAN_MOTION_DDOT":0}]
